CCSDS_OMM_VERS = 2.0
CREATION_DATE  = 
ORIGINATOR     = 

OBJECT_NAME    = KRAKSAT
OBJECT_ID      = 1998-067QM
CENTER_NAME    = EARTH
REF_FRAME      = TEME
TIME_SYSTEM    = UTC
MEAN_ELEMENT_THEORY = SGP/SGP4

EPOCH          = 2020-12-14T23:23:40.327584
MEAN_MOTION    = 15.59940843
ECCENTRICITY   = .0003066
INCLINATION    = 51.6406
RA_OF_ASC_NODE = 152.9679
ARG_OF_PERICENTER = 252.0248
MEAN_ANOMALY   = 196.3359

EPHEMERIS_TYPE = 0
CLASSIFICATION_TYPE = U
NORAD_CAT_ID   = 44427
ELEMENT_SET_NO = 999
REV_AT_EPOCH   = 8261
BSTAR          = .22096E-3
MEAN_MOTION_DOT = .17698E-3
MEAN_MOTION_DDOT = 0

CCSDS_OMM_VERS = 2.0
CREATION_DATE  = 
ORIGINATOR     = 

OBJECT_NAME    = VCC A
OBJECT_ID      = 1998-067QN
CENTER_NAME    = EARTH
REF_FRAME      = TEME
TIME_SYSTEM    = UTC
MEAN_ELEMENT_THEORY = SGP/SGP4

EPOCH          = 2020-12-14T17:33:49.526208
MEAN_MOTION    = 15.62663916
ECCENTRICITY   = .0002548
INCLINATION    = 51.6363
RA_OF_ASC_NODE = 150.0231
ARG_OF_PERICENTER = 270.7509
MEAN_ANOMALY   = 89.3193

EPHEMERIS_TYPE = 0
CLASSIFICATION_TYPE = U
NORAD_CAT_ID   = 44428
ELEMENT_SET_NO = 999
REV_AT_EPOCH   = 8263
BSTAR          = .27748E-3
MEAN_MOTION_DOT = .24896E-3
MEAN_MOTION_DDOT = 0

CCSDS_OMM_VERS = 2.0
CREATION_DATE  = 
ORIGINATOR     = 

OBJECT_NAME    = ENTRYSAT
OBJECT_ID      = 1998-067QP
CENTER_NAME    = EARTH
REF_FRAME      = TEME
TIME_SYSTEM    = UTC
MEAN_ELEMENT_THEORY = SGP/SGP4

EPOCH          = 2020-12-14T17:21:03.921120
MEAN_MOTION    = 15.65097346
ECCENTRICITY   = .0002711
INCLINATION    = 51.6335
RA_OF_ASC_NODE = 146.8998
ARG_OF_PERICENTER = 263.2045
MEAN_ANOMALY   = 96.8642

EPHEMERIS_TYPE = 0
CLASSIFICATION_TYPE = U
NORAD_CAT_ID   = 44429
ELEMENT_SET_NO = 999
REV_AT_EPOCH   = 8267
BSTAR          = .3187E-3
MEAN_MOTION_DOT = .31628E-3
MEAN_MOTION_DDOT = 0

CCSDS_OMM_VERS = 2.0
CREATION_DATE  = 
ORIGINATOR     = 

OBJECT_NAME    = VCC C
OBJECT_ID      = 1998-067QQ
CENTER_NAME    = EARTH
REF_FRAME      = TEME
TIME_SYSTEM    = UTC
MEAN_ELEMENT_THEORY = SGP/SGP4

EPOCH          = 2020-12-14T20:41:56.929344
MEAN_MOTION    = 15.68576204
ECCENTRICITY   = .0002669
INCLINATION    = 51.6343
RA_OF_ASC_NODE = 142.5807
ARG_OF_PERICENTER = 271.3656
MEAN_ANOMALY   = 88.7035

EPHEMERIS_TYPE = 0
CLASSIFICATION_TYPE = U
NORAD_CAT_ID   = 44430
ELEMENT_SET_NO = 999
REV_AT_EPOCH   = 8156
BSTAR          = .38971E-3
MEAN_MOTION_DOT = .44793E-3
MEAN_MOTION_DDOT = 0

CCSDS_OMM_VERS = 2.0
CREATION_DATE  = 
ORIGINATOR     = 

OBJECT_NAME    = VCC B
OBJECT_ID      = 1998-067QR
CENTER_NAME    = EARTH
REF_FRAME      = TEME
TIME_SYSTEM    = UTC
MEAN_ELEMENT_THEORY = SGP/SGP4

EPOCH          = 2020-12-15T04:05:22.924608
MEAN_MOTION    = 15.62834016
ECCENTRICITY   = .0002722
INCLINATION    = 51.6344
RA_OF_ASC_NODE = 147.6595
ARG_OF_PERICENTER = 273.3826
MEAN_ANOMALY   = 86.6857

EPHEMERIS_TYPE = 0
CLASSIFICATION_TYPE = U
NORAD_CAT_ID   = 44431
ELEMENT_SET_NO = 999
REV_AT_EPOCH   = 8264
BSTAR          = .28095E-3
MEAN_MOTION_DOT = .25387E-3
MEAN_MOTION_DDOT = 0

CCSDS_OMM_VERS = 2.0
CREATION_DATE  = 
ORIGINATOR     = 

OBJECT_NAME    = ISS DEB
OBJECT_ID      = 1998-067QT
CENTER_NAME    = EARTH
REF_FRAME      = TEME
TIME_SYSTEM    = UTC
MEAN_ELEMENT_THEORY = SGP/SGP4

EPOCH          = 2020-12-15T03:52:20.110368
MEAN_MOTION    = 15.65142872
ECCENTRICITY   = .0004314
INCLINATION    = 51.6359
RA_OF_ASC_NODE = 154.3494
ARG_OF_PERICENTER = 283.6757
MEAN_ANOMALY   = 76.3758

EPHEMERIS_TYPE = 0
CLASSIFICATION_TYPE = U
NORAD_CAT_ID   = 44788
ELEMENT_SET_NO = 999
REV_AT_EPOCH   = 6158
BSTAR          = .46845E-3
MEAN_MOTION_DOT = .46935E-3
MEAN_MOTION_DDOT = 0

CCSDS_OMM_VERS = 2.0
CREATION_DATE  = 
ORIGINATOR     = 

OBJECT_NAME    = ISS DEB
OBJECT_ID      = 1998-067QU
CENTER_NAME    = EARTH
REF_FRAME      = TEME
TIME_SYSTEM    = UTC
MEAN_ELEMENT_THEORY = SGP/SGP4

EPOCH          = 2020-12-14T04:21:10.101024
MEAN_MOTION    = 15.63643090
ECCENTRICITY   = .000485
INCLINATION    = 51.6356
RA_OF_ASC_NODE = 160.5801
ARG_OF_PERICENTER = 287.3530
MEAN_ANOMALY   = 72.6934

EPHEMERIS_TYPE = 0
CLASSIFICATION_TYPE = U
NORAD_CAT_ID   = 44789
ELEMENT_SET_NO = 999
REV_AT_EPOCH   = 6140
BSTAR          = .44929E-3
MEAN_MOTION_DOT = .42356E-3
MEAN_MOTION_DDOT = 0

CCSDS_OMM_VERS = 2.0
CREATION_DATE  = 
ORIGINATOR     = 

OBJECT_NAME    = RWASAT-1
OBJECT_ID      = 1998-067QV
CENTER_NAME    = EARTH
REF_FRAME      = TEME
TIME_SYSTEM    = UTC
MEAN_ELEMENT_THEORY = SGP/SGP4

EPOCH          = 2020-12-15T05:26:18.600288
MEAN_MOTION    = 15.55507559
ECCENTRICITY   = .0006792
INCLINATION    = 51.6398
RA_OF_ASC_NODE = 162.6883
ARG_OF_PERICENTER = 329.0919
MEAN_ANOMALY   = 201.7389

EPHEMERIS_TYPE = 0
CLASSIFICATION_TYPE = U
NORAD_CAT_ID   = 44790
ELEMENT_SET_NO = 999
REV_AT_EPOCH   = 6073
BSTAR          = .15478E-3
MEAN_MOTION_DOT = .10309E-3
MEAN_MOTION_DDOT = 0

CCSDS_OMM_VERS = 2.0
CREATION_DATE  = 
ORIGINATOR     = 

OBJECT_NAME    = AQT-D
OBJECT_ID      = 1998-067QW
CENTER_NAME    = EARTH
REF_FRAME      = TEME
TIME_SYSTEM    = UTC
MEAN_ELEMENT_THEORY = SGP/SGP4

EPOCH          = 2020-12-14T21:59:12.813792
MEAN_MOTION    = 15.55508331
ECCENTRICITY   = .0005935
INCLINATION    = 51.6397
RA_OF_ASC_NODE = 164.7720
ARG_OF_PERICENTER = 296.6973
MEAN_ANOMALY   = 63.3410

EPHEMERIS_TYPE = 0
CLASSIFICATION_TYPE = U
NORAD_CAT_ID   = 44791
ELEMENT_SET_NO = 999
REV_AT_EPOCH   = 6068
BSTAR          = .15849E-3
MEAN_MOTION_DOT = .10567E-3
MEAN_MOTION_DDOT = 0

CCSDS_OMM_VERS = 2.0
CREATION_DATE  = 
ORIGINATOR     = 

OBJECT_NAME    = NARSSCUBE-1
OBJECT_ID      = 1998-067QX
CENTER_NAME    = EARTH
REF_FRAME      = TEME
TIME_SYSTEM    = UTC
MEAN_ELEMENT_THEORY = SGP/SGP4

EPOCH          = 2020-12-14T22:35:16.520352
MEAN_MOTION    = 15.57953541
ECCENTRICITY   = .0004052
INCLINATION    = 51.6367
RA_OF_ASC_NODE = 161.8856
ARG_OF_PERICENTER = 313.4164
MEAN_ANOMALY   = 46.6490

EPHEMERIS_TYPE = 0
CLASSIFICATION_TYPE = U
NORAD_CAT_ID   = 44792
ELEMENT_SET_NO = 999
REV_AT_EPOCH   = 6072
BSTAR          = .24241E-3
MEAN_MOTION_DOT = .18032E-3
MEAN_MOTION_DDOT = 0

CCSDS_OMM_VERS = 2.0
CREATION_DATE  = 
ORIGINATOR     = 

OBJECT_NAME    = STPSAT-4
OBJECT_ID      = 1998-067QY
CENTER_NAME    = EARTH
REF_FRAME      = TEME
TIME_SYSTEM    = UTC
MEAN_ELEMENT_THEORY = SGP/SGP4

EPOCH          = 2020-12-15T00:32:32.463744
MEAN_MOTION    = 15.51678735
ECCENTRICITY   = .0004827
INCLINATION    = 51.6392
RA_OF_ASC_NODE = 171.4160
ARG_OF_PERICENTER = 314.7416
MEAN_ANOMALY   = 45.3181

EPHEMERIS_TYPE = 0
CLASSIFICATION_TYPE = U
NORAD_CAT_ID   = 45043
ELEMENT_SET_NO = 999
REV_AT_EPOCH   = 4984
BSTAR          = .10443E-3
MEAN_MOTION_DOT = .5867E-4
MEAN_MOTION_DDOT = 0

CCSDS_OMM_VERS = 2.0
CREATION_DATE  = 
ORIGINATOR     = 

OBJECT_NAME    = HARP
OBJECT_ID      = 1998-067QZ
CENTER_NAME    = EARTH
REF_FRAME      = TEME
TIME_SYSTEM    = UTC
MEAN_ELEMENT_THEORY = SGP/SGP4

EPOCH          = 2020-12-14T23:20:35.718432
MEAN_MOTION    = 15.53993307
ECCENTRICITY   = .0006438
INCLINATION    = 51.6397
RA_OF_ASC_NODE = 168.8640
ARG_OF_PERICENTER = 304.4994
MEAN_ANOMALY   = 55.5388

EPHEMERIS_TYPE = 0
CLASSIFICATION_TYPE = U
NORAD_CAT_ID   = 45256
ELEMENT_SET_NO = 999
REV_AT_EPOCH   = 4654
BSTAR          = .12205E-3
MEAN_MOTION_DOT = .7571E-4
MEAN_MOTION_DDOT = 0

